HULIANWANG DIGUI-92     
1 66000U 25231F   26193.91823802 -.00000118  00000+0  12576-4 0  9994
2 66000  50.0051  83.3688 0000589 329.5161  30.5677 13.29328737 36316
HULIANWANG DIGUI-93     
1 66001U 25231G   26193.90149675 -.00000109  00000+0  31853-4 0  9992
2 66001  50.0020  83.2171 0000561 325.9684  34.1152 13.29327866 36319
HULIANWANG DIGUI-94     
1 66002U 25231H   26193.91000074 -.00000114  00000+0  22052-4 0  9990
2 66002  50.0061  83.3434 0000598 327.2111  32.8724 13.29325793 36315
HULIANWANG DIGUI-95     
1 66003U 25231J   26194.11873506 -.00000103  00000+0  46363-4 0  9991
2 66003  50.0035  82.3905 0000522 333.3244  26.7601 13.29332375 36344
HULIANWANG DIGUI-96     
1 66412U 25258A   26194.06725212 -.00000094  00000+0  63860-4 0  9998
2 66412  50.0022 202.8188 0000870 243.4767 116.6016 13.29327134 33177
HULIANWANG DIGUI-97     
1 66413U 25258B   26194.40133850 -.00000098  00000+0  55796-4 0  9991
2 66413  49.9984 201.8455 0001040 242.6361 117.4405 13.29326621 33215
HULIANWANG DIGUI-98     
1 66414U 25258C   26194.39312502 -.00000095  00000+0  62060-4 0  9992
2 66414  50.0019 201.8801 0001116 239.1694 120.9069 13.29323061 33217
HULIANWANG DIGUI-99     
1 66415U 25258D   26193.98374745 -.00000093  00000+0  66897-4 0  9994
2 66415  50.0022 203.0473 0000984 246.3175 113.7594 13.29326404 33157
HULIANWANG DIGUI-100    
1 66416U 25258E   26194.38476238 -.00000096  00000+0  60907-4 0  9999
2 66416  50.0022 201.8414 0001014 252.4230 107.6531 13.29323083 33225
HULIANWANG DIGUI-101    
1 66417U 25258F   26194.45141247 -.00000093  00000+0  66268-4 0  9990
2 66417  49.9973 201.4204 0000845 246.0124 114.0659 13.29327069 33235
HULIANWANG DIGUI-102    
1 66418U 25258G   26193.07325022 -.00000084  00000+0  85526-4 0  9991
2 66418  49.9988 206.1690 0000911 238.3695 121.7089 13.29323039 33048
HULIANWANG DIGUI-103    
1 66419U 25258H   26193.96693017 -.00000099  00000+0  53090-4 0  9999
2 66419  49.9980 202.8742 0001009 251.9402 108.1360 13.29326121 33167
HULIANWANG DIGUI-104    
1 66420U 25258J   26194.48487477 -.00000107  00000+0  35987-4 0  9995
2 66420  50.0000 200.9828 0000944 243.1924 116.8852 13.29326199 33222
HULIANWANG DIGUI-105    
1 66915U 25285A   26193.96268925 -.00000099  00000+0  52971-4 0  9993
2 66915  50.0059  53.7783 0000999  25.4483 334.6438 13.29322616 29483
HULIANWANG DIGUI-106    
1 66916U 25285B   26193.87911167 -.00000106  00000+0  39073-4 0  9994
2 66916  50.0068  54.0247 0001006  25.1822 334.9100 13.29323018 29472
HULIANWANG DIGUI-107    
1 66917U 25285C   26193.94580639 -.00000105  00000+0  41908-4 0  9998
2 66917  50.0034  53.6497 0000975  29.7821 330.3107 13.29325967 29484
